IRIDIUM 116             
1 43072U 17083C   24052.43448015  .00000008  00000+0 -41827-5 0  9992
2 43072  86.3986 315.9063 0002164  84.2643 275.8799 14.34217134322807
IRIDIUM 130             
1 43073U 17083D   24052.54228342  .00000412  00000+0  13999-3 0  9999
2 43073  86.3999 316.0547 0001940  87.3182 272.8236 14.34218260322763
IRIDIUM 151             
1 43074U 17083E   24052.79600931  .00000196  00000+0  62856-4 0  9991
2 43074  86.3991 315.7940 0002203  75.4477 284.6963 14.34218046322824
IRIDIUM 134             
1 43075U 17083F   24052.48522052  .00000135  00000+0  40981-4 0  9993
2 43075  86.3991 315.9205 0002064  89.8514 270.2919 14.34217216322748
IRIDIUM 137             
1 43076U 17083G   24052.42814104  .00000066  00000+0  16607-4 0  9991
2 43076  86.3992 316.0201 0002525  80.6032 279.5449 14.34215598322802
IRIDIUM 141             
1 43077U 17083H   24052.49156959  .00000444  00000+0  15151-3 0  9998
2 43077  86.3989 315.8722 0001985  83.8563 276.2859 14.34217378322815
IRIDIUM 153             
1 43078U 17083J   24052.72280434  .00000374  00000+0  12664-3 0  9999
2 43078  86.3939 284.2176 0001699  77.3991 282.7395 14.34217594323951
IRIDIUM 131             
1 43079U 17083K   24052.47888082  .00000230  00000+0  75070-4 0  9997
2 43079  86.3994 316.0070 0002239  83.7604 276.3846 14.34215881322746
